NORAD_CAT_ID,OBJECT_NAME,OBJECT_TYPE,EPOCH,MEAN_MOTION,ECCENTRICITY,INCLINATION,RA_OF_ASC_NODE,ARG_OF_PERICENTER,MEAN_ANOMALY,BSTAR,MEAN_MOTION_DOT,MEAN_MOTION_DDOT,TLE_LINE0,TLE_LINE1,TLE_LINE2,SEMIMAJOR_AXIS,PERIOD,APOGEE,PERIGEE,DECAYED
54055.0,STARLINK-5158,PAYLOAD,2024-03-29 13:02:30,15.08850064,0.0001468,53.2166,292.2565,74.8381,285.2774,0.00014706,2.054e-05,0.0,0 STARLINK-5158,1 54055U 22136E   24089.54340627  .00002054  00000-0  14706-3 0  9999,2 54055  53.2166 292.2565 0001468  74.8381 285.2774 15.08850064 80117,6917.85,95.437,540.73,538.699,0.0
54055.0,STARLINK-5158,PAYLOAD,2024-03-30 12:53:17,15.08841259,0.0001881,53.215,287.7981,82.8077,277.3129,0.00019083,2.75e-05,0.0,0 STARLINK-5158,1 54055U 22136E   24090.53700677  .00002750  00000-0  19083-3 0  9991,2 54055  53.2150 287.7981 0001881  82.8077 277.3129 15.08841259 80269,6917.877,95.437,541.043,538.44,0.0
54055.0,STARLINK-5158,PAYLOAD,2024-03-30 20:50:13,15.08841594,0.0001302,53.2145,286.3104,82.5203,277.5937,3.8419e-05,3.24e-06,0.0,0 STARLINK-5158,1 54055U 22136E   24090.86820608  .00000324  00000-0  38419-4 0  9994,2 54055  53.2145 286.3104 0001302  82.5203 277.5937 15.08841594 79833,6917.876,95.437,540.641,538.84,0.0
54055.0,STARLINK-5158,PAYLOAD,2024-03-31 12:44:04,15.08841028,0.0001783,53.2155,283.3374,79.2928,280.8264,3.9277e-05,3.37e-06,0.0,0 STARLINK-5158,1 54055U 22136E   24091.53060718  .00000337  00000-0  39277-4 0  9994,2 54055  53.2155 283.3374 0001783  79.2928 280.8264 15.08841028 79933,6917.877,95.437,540.976,538.509,0.0
54055.0,STARLINK-5158,PAYLOAD,2024-03-31 19:05:36,15.08842798,0.0001582,53.2157,282.147,83.5331,276.5841,5.109e-05,5.25e-06,0.0,0 STARLINK-5158,1 54055U 22136E   24091.79556633  .00000525  00000-0  51090-4 0  9994,2 54055  53.2157 282.1470 0001582  83.5331 276.5841 15.08842798 80459,6917.872,95.437,540.831,538.642,0.0
54055.0,STARLINK-5158,PAYLOAD,2024-04-01 12:34:51,15.08838547,0.0001305,53.216,278.8754,87.2651,272.849,0.00014886,2.082e-05,0.0,0 STARLINK-5158,1 54055U 22136E   24092.52420452  .00002082  00000-0  14886-3 0  9996,2 54055  53.2160 278.8754 0001305  87.2651 272.8490 15.08838547 80084,6917.885,95.438,540.653,538.847,0.0
54055.0,STARLINK-5158,PAYLOAD,2024-04-01 18:56:24,15.08833512,0.0001185,53.2178,277.6855,92.7288,267.384,0.00014967,2.095e-05,0.0,0 STARLINK-5158,1 54055U 22136E   24092.78916789  .00002095  00000-0  14967-3 0  9991,2 54055  53.2178 277.6855 0001185  92.7288 267.3840 15.08833512 80608,6917.9,95.438,540.585,538.945,0.0
54055.0,STARLINK-5158,PAYLOAD,2024-04-02 12:25:38,15.08831289,0.0001161,53.2173,274.4123,97.5739,262.5385,0.00011393,1.525e-05,0.0,0 STARLINK-5158,1 54055U 22136E   24093.51780968  .00001525  00000-0  11393-3 0  9998,2 54055  53.2173 274.4123 0001161  97.5739 262.5385 15.08831289 80233,6917.907,95.438,540.575,538.969,0.0
54055.0,STARLINK-5158,PAYLOAD,2024-04-02 21:57:57,15.08836416,0.0001326,53.2171,272.6285,92.0362,268.0782,1.3059e-05,-8e-07,0.0,0 STARLINK-5158,1 54055U 22136E   24093.91525036 -.00000080  00000-0  13059-4 0  9993,2 54055  53.2171 272.6285 0001326  92.0362 268.0782 15.08836416 80290,6917.891,95.438,540.674,538.839,0.0
54055.0,STARLINK-5158,PAYLOAD,2024-04-03 04:19:29,15.08841693,0.0001353,53.2178,271.4393,92.7692,267.3455,5.8315e-05,6.4e-06,0.0,0 STARLINK-5158,1 54055U 22136E   24094.18020580  .00000640  00000-0  58315-4 0  9992,2 54055  53.2178 271.4393 0001353  92.7692 267.3455 15.08841693 80817,6917.875,95.437,540.676,538.804,0.0
54055.0,STARLINK-5158,PAYLOAD,2024-04-03 12:16:26,15.08832304,0.0001427,53.2185,269.9543,96.2448,263.8707,4.9998e-05,5.08e-06,0.0,0 STARLINK-5158,1 54055U 22136E   24094.51141239  .00000508  00000-0  49998-4 0  9994,2 54055  53.2185 269.9543 0001427  96.2448 263.8707 15.08832304 80869,6917.904,95.438,540.756,538.782,0.0
54055.0,STARLINK-5158,PAYLOAD,2024-04-03 18:37:58,15.08835485,0.0001387,53.218,268.7674,98.8144,261.3005,7.7827e-05,9.51e-06,0.0,0 STARLINK-5158,1 54055U 22136E   24094.77637050  .00000951  00000-0  77827-4 0  9997,2 54055  53.2180 268.7674 0001387  98.8144 261.3005 15.08835485 80421,6917.894,95.438,540.719,538.8,0.0
54055.0,STARLINK-5158,PAYLOAD,2024-04-04 04:10:16,15.08840737,0.0001371,53.2179,266.983,97.4443,262.6705,0.00010714,1.418e-05,0.0,0 STARLINK-5158,1 54055U 22136E   24095.17380682  .00001418  00000-0  10714-3 0  9998,2 54055  53.2179 266.9830 0001371  97.4443 262.6705 15.08840737 80969,6917.878,95.438,540.692,538.795,0.0
54055.0,STARLINK-5158,PAYLOAD,2024-04-04 12:07:12,15.08834129,0.0001397,53.2189,265.4962,102.7176,257.3972,8.6806e-05,1.094e-05,0.0,0 STARLINK-5158,1 54055U 22136E   24095.50501143  .00001094  00000-0  86806-4 0  9998,2 54055  53.2189 265.4962 0001397 102.7176 257.3972 15.08834129 81013,6917.898,95.438,540.73,538.797,0.0
54055.0,STARLINK-5158,PAYLOAD,2024-04-04 18:28:45,15.08832282,0.0001382,53.2187,264.3068,98.9195,261.1954,6.7945e-05,7.93e-06,0.0,0 STARLINK-5158,1 54055U 22136E   24095.76997440  .00000793  00000-0  67945-4 0  9993,2 54055  53.2187 264.3068 0001382  98.9195 261.1954 15.08832282 80578,6917.904,95.438,540.725,538.813,0.0
54055.0,STARLINK-5158,PAYLOAD,2024-04-05 04:01:04,15.08841756,0.0001363,53.219,262.5224,98.7496,261.365,6.9315e-05,8.15e-06,0.0,0 STARLINK-5158,1 54055U 22136E   24096.16740897  .00000815  00000-0  69315-4 0  9998,2 54055  53.2190 262.5224 0001363  98.7496 261.3650 15.08841756 80635,6917.875,95.437,540.683,538.797,0.0
54055.0,STARLINK-5158,PAYLOAD,2024-04-05 19:55:02,15.08759438,0.0001623,53.2186,259.5494,91.8378,268.28,-0.00061394,-0.00010024,0.0,0 STARLINK-5158,1 54055U 22136E   24096.82988551 -.00010024  00000-0 -61394-3 0  9995,2 54055  53.2186 259.5494 0001623  91.8378 268.2800 15.08759438 81210,6918.127,95.443,541.114,538.869,0.0
54055.0,STARLINK-5158,PAYLOAD,2024-04-06 03:52:00,15.08736815,0.0001747,53.2179,258.0624,99.4004,260.7186,-0.00078818,-0.00012775,0.0,0 STARLINK-5158,1 54055U 22136E   24097.16112229 -.00012775  00000-0 -78818-3 0  9998,2 54055  53.2179 258.0624 0001747  99.4004 260.7186 15.08736815 81261,6918.196,95.444,541.269,538.852,0.0
54055.0,STARLINK-5158,PAYLOAD,2024-04-06 10:13:27,15.08815847,0.0001257,53.2183,256.8711,82.2467,277.8668,-9.6555e-06,-4.41e-06,0.0,0 STARLINK-5158,1 54055U 22136E   24097.42601709 -.00000441  00000-0 -96555-5 0  9990,2 54055  53.2183 256.8711 0001257  82.2467 277.8668 15.08815847 81300,6917.954,95.439,540.689,538.95,0.0
54055.0,STARLINK-5158,PAYLOAD,2024-04-06 16:34:59,15.08832175,0.0001453,53.2178,255.6818,78.376,281.7396,0.00012377,1.682e-05,0.0,0 STARLINK-5158,1 54055U 22136E   24097.69096524  .00001682  00000-0  12377-3 0  9996,2 54055  53.2178 255.6818 0001453  78.3760 281.7396 15.08832175 81348,6917.904,95.438,540.774,538.764,0.0
54055.0,STARLINK-5158,PAYLOAD,2024-04-07 10:04:12,15.08850519,0.0001969,53.2171,252.4098,90.4699,269.6519,0.00032456,4.883e-05,0.0,0 STARLINK-5158,1 54055U 22136E   24098.41958697  .00004883  00000-0  32456-3 0  9991,2 54055  53.2171 252.4098 0001969  90.4699 269.6519 15.08850519 81450,6917.848,95.437,541.075,538.351,0.0
54055.0,STARLINK-5158,PAYLOAD,2024-04-07 19:36:28,15.08870822,0.0001492,53.217,250.6251,105.8792,254.2364,0.00077717,0.00012113,0.0,0 STARLINK-5158,1 54055U 22136E   24098.81699321  .00012113  00000-0  77717-3 0  9995,2 54055  53.2170 250.6251 0001492 105.8792 254.2364 15.08870822 81510,6917.786,95.436,540.683,538.619,0.0
54055.0,STARLINK-5158,PAYLOAD,2024-04-08 03:33:23,15.08871105,0.0001456,53.2148,249.1388,95.7941,264.3218,0.00069668,0.00010826,0.0,0 STARLINK-5158,1 54055U 22136E   24099.14819145  .00010826  00000-0  69668-3 0  9995,2 54055  53.2148 249.1388 0001456  95.7941 264.3218 15.08871105 81562,6917.785,95.436,540.658,538.643,0.0
54055.0,STARLINK-5158,PAYLOAD,2024-04-08 19:27:18,15.08848524,0.0001626,53.216,246.165,100.2151,259.9025,-0.00014973,-2.671e-05,0.0,0 STARLINK-5158,1 54055U 22136E   24099.81063171 -.00002671  00000-0 -14973-3 0  9999,2 54055  53.2160 246.1650 0001626 100.2151 259.9025 15.08848524 81665,6917.854,95.437,540.844,538.594,0.0
54055.0,STARLINK-5158,PAYLOAD,2024-04-09 09:45:45,15.08853051,0.0001184,53.22,243.4879,111.09,249.0218,-0.00017372,-3.053e-05,0.0,0 STARLINK-5158,1 54055U 22136E   24100.40678126 -.00003053  00000-0 -17372-3 0  9990,2 54055  53.2200 243.4879 0001184 111.0900 249.0218 15.08853051 81759,6917.84,95.437,540.525,538.886,0.0
54055.0,STARLINK-5158,PAYLOAD,2024-04-10 09:36:32,15.08834453,0.0001572,53.2204,239.0273,118.4787,241.6363,0.00011097,1.478e-05,0.0,0 STARLINK-5158,1 54055U 22136E   24101.40037147  .00001478  00000-0  11097-3 0  9998,2 54055  53.2204 239.0273 0001572 118.4787 241.6363 15.08834453 81425,6917.897,95.438,540.85,538.675,0.0
54055.0,STARLINK-5158,PAYLOAD,2024-04-10 15:58:04,15.08848067,0.0001618,53.2166,237.8412,95.2493,264.8684,-0.00010632,-1.98e-05,0.0,0 STARLINK-5158,1 54055U 22136E   24101.66532918 -.00001980  00000-0 -10632-3 0  9996,2 54055  53.2166 237.8412 0001618  95.2493 264.8684 15.08848067 81946,6917.856,95.437,540.84,538.601,0.0
54055.0,STARLINK-5158,PAYLOAD,2024-04-11 01:30:24,15.08815915,0.0001795,53.2206,236.0559,96.3406,263.7791,0.00042137,6.42e-05,0.0,0 STARLINK-5158,1 54055U 22136E   24102.06278000  .00006420  00000-0  42137-3 0  9997,2 54055  53.2206 236.0559 0001795  96.3406 263.7791 15.08815915 82007,6917.954,95.439,541.061,538.577,0.0
54055.0,STARLINK-5158,PAYLOAD,2024-04-11 12:38:06,15.0882998,0.0001472,53.2223,233.9744,105.8456,254.2699,9.1241e-05,1.164e-05,0.0,0 STARLINK-5158,1 54055U 22136E   24102.52645973  .00001164  00000-0  91241-4 0  9996,2 54055  53.2223 233.9744 0001472 105.8456 254.2699 15.08829980 82077,6917.911,95.438,540.794,538.758,0.0
54055.0,STARLINK-5158,PAYLOAD,2024-04-11 14:13:29,15.0883362,0.0001768,53.2208,233.6767,104.2306,255.8883,2.1896e-05,6e-07,0.0,0 STARLINK-5158,1 54055U 22136E   24102.59269918  .00000060  00000-0  21896-4 0  9997,2 54055  53.2208 233.6767 0001768 104.2306 255.8883 15.08833620 81603,6917.9,95.438,540.988,538.542,0.0
